{"type": "FeatureCollection", "features": [ {"type": "Feature", "properties": {"norad_id": 66426, "name": "STARLINK-35589", "group": "last-30-days", "lat": -3.60877526956856, "lon": -78.60225734080348, "alt_km": 417.1988359812476, "timestamp": "2025-12-04T03:47:53.335220+00:00", "meta": {"OBJECT_NAME": "STARLINK-35589", "OBJECT_ID": "2025-259E", "EPOCH": "2025-12-03T20:00:01.999008", "MEAN_MOTION": 15.50965835, "ECCENTRICITY": 0.0001161, "INCLINATION": 43.0002, "RA_OF_ASC_NODE": 99.4175, "ARG_OF_PERICENTER": 284.3735, "MEAN_ANOMALY": 245.1883, "EPHEMERIS_TYPE": 0, "CLASSIFICATION_TYPE": "U", "NORAD_CAT_ID": 66426, "ELEMENT_SET_NO": 999, "REV_AT_EPOCH": 484, "BSTAR": -0.025934, "MEAN_MOTION_DOT": -0.01384882, "MEAN_MOTION_DDOT": 0}, "tle": {"line1": "1 66426U 25259E   25337.83335647 -.01384882  00000+0 -25934-1 0  9995", "line2": "2 66426  43.0002  99.4175 0001161 284.3735 245.1883 15.50965835  4845"}}, "geometry": {"type": "Point", "coordinates": [-78.60225734080348, -3.60877526956856]}}, {"type": "Feature", "properties": {"norad_id": 66427, "name": "STARLINK-35611", "group": "last-30-days", "lat": -5.031767631015716, "lon": -77.06738732796258, "alt_km": 415.6004372670086, "timestamp": "2025-12-04T03:47:53.335231+00:00", "meta": {"OBJECT_NAME": "STARLINK-35611", "OBJECT_ID": "2025-259F", "EPOCH": "2025-12-03T20:00:01.999008", "MEAN_MOTION": 15.50557532, "ECCENTRICITY": 0.0001485, "INCLINATION": 43.0002, "RA_OF_ASC_NODE": 99.4117, "ARG_OF_PERICENTER": 285.0672, "MEAN_ANOMALY": 246.4742, "EPHEMERIS_TYPE": 0, "CLASSIFICATION_TYPE": "U", "NORAD_CAT_ID": 66427, "ELEMENT_SET_NO": 999, "REV_AT_EPOCH": 484, "BSTAR": 0.00066426, "MEAN_MOTION_DOT": 0.0003879, "MEAN_MOTION_DDOT": 0}, "tle": {"line1": "1 66427U 25259F   25337.83335647  .00038790  00000+0  66426-3 0  9990", "line2": "2 66427  43.0002  99.4117 0001485 285.0672 246.4742 15.50557532  4848"}}, "geometry": {"type": "Point", "coordinates": [-77.06738732796258, -5.031767631015716]}}, {"type": "Feature", "properties": {"norad_id": 66428, "name": "STARLINK-35610", "group": "last-30-days", "lat": -6.329948071645796, "lon": -75.65675576918278, "alt_km": 415.6164068651615, "timestamp": "2025-12-04T03:47:53.335241+00:00", "meta": {"OBJECT_NAME": "STARLINK-35610", "OBJECT_ID": "2025-259G", "EPOCH": "2025-12-03T20:00:01.999008", "MEAN_MOTION": 15.50591624, "ECCENTRICITY": 0.0001516, "INCLINATION": 43.0003, "RA_OF_ASC_NODE": 99.4073, "ARG_OF_PERICENTER": 277.4463, "MEAN_ANOMALY": 255.9968, "EPHEMERIS_TYPE": 0, "CLASSIFICATION_TYPE": "U", "NORAD_CAT_ID": 66428, "ELEMENT_SET_NO": 999, "REV_AT_EPOCH": 484, "BSTAR": -0.0004806, "MEAN_MOTION_DOT": -0.00028446, "MEAN_MOTION_DDOT": 0}, "tle": {"line1": "1 66428U 25259G   25337.83335647 -.00028446  00000+0 -48060-3 0  9994", "line2": "2 66428  43.0003  99.4073 0001516 277.4463 255.9968 15.50591624  4844"}}, "geometry": {"type": "Point", "coordinates": [-75.65675576918278, -6.329948071645796]}}, {"type": "Feature", "properties": {"norad_id": 66429, "name": "STARLINK-35533", "group": "last-30-days", "lat": -7.629890907373041, "lon": -74.23436729022988, "alt_km": 415.8752160986969, "timestamp": "2025-12-04T03:47:53.335251+00:00", "meta": {"OBJECT_NAME": "STARLINK-35533", "OBJECT_ID": "2025-259H", "EPOCH": "2025-12-03T20:00:01.999008", "MEAN_MOTION": 15.50613995, "ECCENTRICITY": 0.0001463, "INCLINATION": 43.0003, "RA_OF_ASC_NODE": 99.4013, "ARG_OF_PERICENTER": 282.8845, "MEAN_ANOMALY": 252.4781, "EPHEMERIS_TYPE": 0, "CLASSIFICATION_TYPE": "U", "NORAD_CAT_ID": 66429, "ELEMENT_SET_NO": 999, "REV_AT_EPOCH": 484, "BSTAR": -0.0014856, "MEAN_MOTION_DOT": -0.00086642, "MEAN_MOTION_DDOT": 0}, "tle": {"line1": "1 66429U 25259H   25337.83335647 -.00086642  00000+0 -14856-2 0  9992", "line2": "2 66429  43.0003  99.4013 0001463 282.8845 252.4781 15.50613995  4845"}}, "geometry": {"type": "Point", "coordinates": [-74.23436729022988, -7.629890907373041]}}, {"type": "Feature", "properties": {"norad_id": 66430, "name": "STARLINK-35470", "group": "last-30-days", "lat": -8.920600330773441, "lon": -72.8050432354711, "alt_km": 415.89581773527516, "timestamp": "2025-12-04T03:47:53.335261+00:00", "meta": {"OBJECT_NAME": "STARLINK-35470", "OBJECT_ID": "2025-259J", "EPOCH": "2025-12-03T20:00:01.999008", "MEAN_MOTION": 15.50611413, "ECCENTRICITY": 0.0001437, "INCLINATION": 43.0004, "RA_OF_ASC_NODE": 99.3986, "ARG_OF_PERICENTER": 277.4713, "MEAN_ANOMALY": 259.8101, "EPHEMERIS_TYPE": 0, "CLASSIFICATION_TYPE": "U", "NORAD_CAT_ID": 66430, "ELEMENT_SET_NO": 999, "REV_AT_EPOCH": 484, "BSTAR": -0.0014349, "MEAN_MOTION_DOT": -0.00083724, "MEAN_MOTION_DDOT": 0}, "tle": {"line1": "1 66430U 25259J   25337.83335647 -.00083724  00000+0 -14349-2 0  9999", "line2": "2 66430  43.0004  99.3986 0001437 277.4713 259.8101 15.50611413  4841"}}, "geometry": {"type": "Point", "coordinates": [-72.8050432354711, -8.920600330773441]}}, {"type": "Feature", "properties": {"norad_id": 66431, "name": "STARLINK-35439", "group": "last-30-days", "lat": -10.208454775126057, "lon": -71.366452706134, "alt_km": 415.9402936749211, "timestamp": "2025-12-04T03:47:53.335270+00:00", "meta": {"OBJECT_NAME": "STARLINK-35439", "OBJECT_ID": "2025-259K", "EPOCH": "2025-12-03T20:00:01.999008", "MEAN_MOTION": 15.50619707, "ECCENTRICITY": 0.000142, "INCLINATION": 43.0004, "RA_OF_ASC_NODE": 99.392, "ARG_OF_PERICENTER": 273.1391, "MEAN_ANOMALY": 266.0599, "EPHEMERIS_TYPE": 0, "CLASSIFICATION_TYPE": "U", "NORAD_CAT_ID": 66431, "ELEMENT_SET_NO": 999, "REV_AT_EPOCH": 484, "BSTAR": -0.0017213, "MEAN_MOTION_DOT": -0.00100185, "MEAN_MOTION_DDOT": 0}, "tle": {"line1": "1 66431U 25259K   25337.83335647 -.00100185  00000+0 -17213-2 0  9994", "line2": "2 66431  43.0004  99.3920 0001420 273.1391 266.0599 15.50619707  4842"}}, "geometry": {"type": "Point", "coordinates": [-71.366452706134, -10.208454775126057]}}, {"type": "Feature", "properties": {"norad_id": 66432, "name": "STARLINK-35446", "group": "last-30-days", "lat": -11.391970513204939, "lon": -70.02742635320665, "alt_km": 416.51628818719746, "timestamp": "2025-12-04T03:47:53.335281+00:00", "meta": {"OBJECT_NAME": "STARLINK-35446", "OBJECT_ID": "2025-259L", "EPOCH": "2025-12-03T20:00:01.999008", "MEAN_MOTION": 15.50492718, "ECCENTRICITY": 0.0001845, "INCLINATION": 43.0003, "RA_OF_ASC_NODE": 99.386, "ARG_OF_PERICENTER": 302.3998, "MEAN_ANOMALY": 238.6333, "EPHEMERIS_TYPE": 0, "CLASSIFICATION_TYPE": "U", "NORAD_CAT_ID": 66432, "ELEMENT_SET_NO": 999, "REV_AT_EPOCH": 484, "BSTAR": 0.0024381, "MEAN_MOTION_DOT": 0.00144926, "MEAN_MOTION_DDOT": 0}, "tle": {"line1": "1 66432U 25259L   25337.83335647  .00144926  00000+0  24381-2 0  9998", "line2": "2 66432  43.0003  99.3860 0001845 302.3998 238.6333 15.50492718  4846"}}, "geometry": {"type": "Point", "coordinates": [-70.02742635320665, -11.391970513204939]}}, {"type": "Feature", "properties": {"norad_id": 66433, "name": "STARLINK-35457", "group": "last-30-days", "lat": -12.755090182532017, "lon": -68.45842656231422, "alt_km": 416.4080756868425, "timestamp": "2025-12-04T03:47:53.335294+00:00", "meta": {"OBJECT_NAME": "STARLINK-35457", "OBJECT_ID": "2025-259M", "EPOCH": "2025-12-03T20:00:01.999008", "MEAN_MOTION": 15.50621101, "ECCENTRICITY": 0.0001476, "INCLINATION": 43.0003, "RA_OF_ASC_NODE": 99.3833, "ARG_OF_PERICENTER": 289.1914, "MEAN_ANOMALY": 253.8347, "EPHEMERIS_TYPE": 0, "CLASSIFICATION_TYPE": "U", "NORAD_CAT_ID": 66433, "ELEMENT_SET_NO": 999, "REV_AT_EPOCH": 484, "BSTAR": -0.0016547, "MEAN_MOTION_DOT": -0.00096375, "MEAN_MOTION_DDOT": 0}, "tle": {"line1": "1 66433U 25259M   25337.83335647 -.00096375  00000+0 -16547-2 0  9990", "line2": "2 66433  43.0003  99.3833 0001476 289.1914 253.8347 15.50621101  4841"}}, "geometry": {"type": "Point", "coordinates": [-68.45842656231422, -12.755090182532017]}}, {"type": "Feature", "properties": {"norad_id": 66434, "name": "STARLINK-35389", "group": "last-30-days", "lat": -14.01723226789274, "lon": -66.98260737709764, "alt_km": 416.252186122063, "timestamp": "2025-12-04T03:47:53.335305+00:00", "meta": {"OBJECT_NAME": "STARLINK-35389", "OBJECT_ID": "2025-259N", "EPOCH": "2025-12-03T20:00:01.999008", "MEAN_MOTION": 15.50613012, "ECCENTRICITY": 0.0001543, "INCLINATION": 43.0004, "RA_OF_ASC_NODE": 99.3788, "ARG_OF_PERICENTER": 275.4185, "MEAN_ANOMALY": 269.5287, "EPHEMERIS_TYPE": 0, "CLASSIFICATION_TYPE": "U", "NORAD_CAT_ID": 66434, "ELEMENT_SET_NO": 999, "REV_AT_EPOCH": 484, "BSTAR": -0.0014586, "MEAN_MOTION_DOT": -0.00085089, "MEAN_MOTION_DDOT": 0}, "tle": {"line1": "1 66434U 25259N   25337.83335647 -.00085089  00000+0 -14586-2 0  9992", "line2": "2 66434  43.0004  99.3788 0001543 275.4185 269.5287 15.50613012  4844"}}, "geometry": {"type": "Point", "coordinates": [-66.98260737709764, -14.01723226789274]}}, {"type": "Feature", "properties": {"norad_id": 66435, "name": "STARLINK-35502", "group": "last-30-days", "lat": -15.272364792700715, "lon": -65.48782683592619, "alt_km": 416.55988828253885, "timestamp": "2025-12-04T03:47:53.335315+00:00", "meta": {"OBJECT_NAME": "STARLINK-35502", "OBJECT_ID": "2025-259P", "EPOCH": "2025-12-03T20:00:01.999008", "MEAN_MOTION": 15.50609697, "ECCENTRICITY": 0.0001494, "INCLINATION": 43.0004, "RA_OF_ASC_NODE": 99.3744, "ARG_OF_PERICENTER": 286.9636, "MEAN_ANOMALY": 259.9056, "EPHEMERIS_TYPE": 0, "CLASSIFICATION_TYPE": "U", "NORAD_CAT_ID": 66435, "ELEMENT_SET_NO": 999, "REV_AT_EPOCH": 484, "BSTAR": -0.0014244, "MEAN_MOTION_DOT": -0.00083112, "MEAN_MOTION_DDOT": 0}, "tle": {"line1": "1 66435U 25259P   25337.83335647 -.00083112  00000+0 -14244-2 0  9999", "line2": "2 66435  43.0004  99.3744 0001494 286.9636 259.9056 15.50609697  4841"}}, "geometry": {"type": "Point", "coordinates": [-65.48782683592619, -15.272364792700715]}}]}